ORBCOMM FM33            
1 25983U 99065D   24335.96197546  .00002890  00000+0  97321-3 0  9993
2 25983  45.0273 220.7326 0008292 139.5426 220.6041 14.38980850307509
ORBCOMM FM36            
1 25984U 99065E   24335.80457300  .00004227  00000+0  14574-2 0  9998
2 25984  45.0400 310.3527 0004276 357.7903   2.2926 14.37077144305879
ORBCOMM FM35            
1 25985U 99065F   24335.93048964  .00003368  00000+0  11904-2 0  9994
2 25985  45.0398 313.3326 0001521 121.5737 238.5260 14.36255717306271
ORBCOMM FM34            
1 25986U 99065G   24336.11049242  .00003041  00000+0  10789-2 0  9994
2 25986  45.0396 313.0184 0003097  38.5120 321.5949 14.36287883306458
ORBCOMM FM38            
1 33060U 08031A   24335.94018322  .00005157  00000+0  70688-3 0  9999
2 33060  48.4380 178.9541 0005980 259.5083 100.5158 14.79673407885379
ORBCOMM FM41            
1 33061U 08031B   24335.89407671  .00005103  00000+0  70572-3 0  9996
2 33061  48.4416 186.3114 0005222 245.2875 128.3509 14.79320369884866
ORBCOMM FM29            
1 33062U 08031C   24335.97856859  .00005336  00000+0  73601-3 0  9996
2 33062  48.4370 193.9049 0006876 245.8774 255.7926 14.79348850885175
ORBCOMM FM39            
1 33063U 08031D   24335.93577881  .00004666  00000+0  66619-3 0  9994
2 33063  48.4389 216.3418 0007696 222.7553 137.2763 14.78102805884456
